{
    "links": {
        "self": "http://www.neowsapp.com/rest/v1/neo/3137853?api_key=iIulBulltgU6a56xZRHN4H3l9WmuAYTsLGpBGhQ2"
    },
    "id": "3137853",
    "neo_reference_id": "3137853",
    "name": "(2002 TZ68)",
    "designation": "2002 TZ68",
    "nasa_jpl_url": "http://ssd.jpl.nasa.gov/sbdb.cgi?sstr=3137853",
    "absolute_magnitude_h": 26.4,
    "estimated_diameter": {
        "kilometers": {
            "estimated_diameter_min": 0.0139493823,
            "estimated_diameter_max": 0.0311917671
        },
        "meters": {
            "estimated_diameter_min": 13.9493822934,
            "estimated_diameter_max": 31.1917670523
        },
        "miles": {
            "estimated_diameter_min": 0.0086677416,
            "estimated_diameter_max": 0.0193816595
        },
        "feet": {
            "estimated_diameter_min": 45.7656914036,
            "estimated_diameter_max": 102.3351970157
        }
    },
    "is_potentially_hazardous_asteroid": false,
    "close_approach_data": [
        {
            "close_approach_date": "2002-10-07",
            "close_approach_date_full": "2002-Oct-07 17:36",
            "epoch_date_close_approach": 1034012160000,
            "relative_velocity": {
                "kilometers_per_second": "6.8769310177",
                "kilometers_per_hour": "24756.9516638895",
                "miles_per_hour": "15383.0069935985"
            },
            "miss_distance": {
                "astronomical": "0.0259307323",
                "lunar": "10.0870548647",
                "kilometers": "3879182.319620201",
                "miles": "2410412.1211167338"
            },
            "orbiting_body": "Earth"
        },
        {
            "close_approach_date": "2120-09-06",
            "close_approach_date_full": "2120-Sep-06 02:21",
            "epoch_date_close_approach": 4755032460000,
            "relative_velocity": {
                "kilometers_per_second": "10.8153665788",
                "kilometers_per_hour": "38935.3196835407",
                "miles_per_hour": "24192.8935000312"
            },
            "miss_distance": {
                "astronomical": "0.1391896836",
                "lunar": "54.1447869204",
                "kilometers": "20822480.192533932",
                "miles": "12938489.2259229816"
            },
            "orbiting_body": "Earth"
        }
    ],
    "orbital_data": {
        "orbit_id": "7",
        "orbit_determination_date": "2017-04-06 09:14:44",
        "first_observation_date": "2002-10-09",
        "last_observation_date": "2002-10-13",
        "data_arc_in_days": 4,
        "observations_used": 13,
        "orbit_uncertainty": "9",
        "minimum_orbit_intersection": ".0258899",
        "jupiter_tisserand_invariant": "3.450",
        "epoch_osculation": "2452557.5",
        "eccentricity": ".5369020000978839",
        "semi_major_axis": "2.21350675118428",
        "inclination": "3.043079701206036",
        "ascending_node_longitude": "13.64157948640881",
        "orbital_period": "1202.872796513599",
        "perihelion_distance": "1.025070549243271",
        "perihelion_argument": "2.665670786015519",
        "aphelion_distance": "3.401942953125289",
        "perihelion_time": "2452556.999323573136",
        "mean_anomaly": ".1498442014762134",
        "mean_motion": ".2992835161318989",
        "equinox": "J2000",
        "orbit_class": {
            "orbit_class_type": "AMO",
            "orbit_class_description": "Near-Earth asteroid orbits similar to that of 1221 Amor",
            "orbit_class_range": "1.017 AU < q (perihelion) < 1.3 AU"
        }
    },
    "is_sentry_object": false
}